CCSDS_OMM_VERS = 2.0
CREATION_DATE  = 
ORIGINATOR     = 

OBJECT_NAME    = QMR-KWT-2 (RS95S)
OBJECT_ID      = 2025-313AV
CENTER_NAME    = EARTH
REF_FRAME      = TEME
TIME_SYSTEM    = UTC
MEAN_ELEMENT_THEORY = SGP/SGP4

EPOCH          = 2026-01-24T21:43:46.553952
MEAN_MOTION    = 15.21917973
ECCENTRICITY   = .00106054
INCLINATION    = 97.4085
RA_OF_ASC_NODE = 101.9501
ARG_OF_PERICENTER = 135.5866
MEAN_ANOMALY   = 224.6223

EPHEMERIS_TYPE = 0
CLASSIFICATION_TYPE = U
NORAD_CAT_ID   = 67291
ELEMENT_SET_NO = 999
REV_AT_EPOCH   = 416
BSTAR          = .10435656E-2
MEAN_MOTION_DOT = .23792E-3
MEAN_MOTION_DDOT = 0

CCSDS_OMM_VERS = 2.0
CREATION_DATE  = 
ORIGINATOR     = 

OBJECT_NAME    = SITRO-AIS-64
OBJECT_ID      = 2025-313AW
CENTER_NAME    = EARTH
REF_FRAME      = TEME
TIME_SYSTEM    = UTC
MEAN_ELEMENT_THEORY = SGP/SGP4

EPOCH          = 2026-01-24T21:42:56.303712
MEAN_MOTION    = 15.21852751
ECCENTRICITY   = .00104729
INCLINATION    = 97.4089
RA_OF_ASC_NODE = 101.9526
ARG_OF_PERICENTER = 135.2146
MEAN_ANOMALY   = 224.9938

EPHEMERIS_TYPE = 0
CLASSIFICATION_TYPE = U
NORAD_CAT_ID   = 67292
ELEMENT_SET_NO = 999
REV_AT_EPOCH   = 416
BSTAR          = .75666441E-3
MEAN_MOTION_DOT = .17183E-3
MEAN_MOTION_DDOT = 0

CCSDS_OMM_VERS = 2.0
CREATION_DATE  = 
ORIGINATOR     = 

OBJECT_NAME    = SCORPION (RS89S)
OBJECT_ID      = 2025-313AX
CENTER_NAME    = EARTH
REF_FRAME      = TEME
TIME_SYSTEM    = UTC
MEAN_ELEMENT_THEORY = SGP/SGP4

EPOCH          = 2026-01-24T21:47:21.870528
MEAN_MOTION    = 15.21461053
ECCENTRICITY   = .00125103
INCLINATION    = 97.4087
RA_OF_ASC_NODE = 101.9447
ARG_OF_PERICENTER = 126.7648
MEAN_ANOMALY   = 233.4738

EPHEMERIS_TYPE = 0
CLASSIFICATION_TYPE = U
NORAD_CAT_ID   = 67293
ELEMENT_SET_NO = 999
REV_AT_EPOCH   = 416
BSTAR          = .32404944E-3
MEAN_MOTION_DOT = .723E-4
MEAN_MOTION_DDOT = 0

CCSDS_OMM_VERS = 2.0
CREATION_DATE  = 
ORIGINATOR     = 

OBJECT_NAME    = SITRO-AIS-63
OBJECT_ID      = 2025-313AY
CENTER_NAME    = EARTH
REF_FRAME      = TEME
TIME_SYSTEM    = UTC
MEAN_ELEMENT_THEORY = SGP/SGP4

EPOCH          = 2026-01-24T21:41:51.718848
MEAN_MOTION    = 15.21890688
ECCENTRICITY   = .00103794
INCLINATION    = 97.4093
RA_OF_ASC_NODE = 101.9544
ARG_OF_PERICENTER = 135.5503
MEAN_ANOMALY   = 224.6567

EPHEMERIS_TYPE = 0
CLASSIFICATION_TYPE = U
NORAD_CAT_ID   = 67294
ELEMENT_SET_NO = 999
REV_AT_EPOCH   = 416
BSTAR          = .72533769E-3
MEAN_MOTION_DOT = .16485E-3
MEAN_MOTION_DDOT = 0

CCSDS_OMM_VERS = 2.0
CREATION_DATE  = 
ORIGINATOR     = 

OBJECT_NAME    = ZORKIY-2M-5
OBJECT_ID      = 2025-313AZ
CENTER_NAME    = EARTH
REF_FRAME      = TEME
TIME_SYSTEM    = UTC
MEAN_ELEMENT_THEORY = SGP/SGP4

EPOCH          = 2026-01-24T21:42:23.472576
MEAN_MOTION    = 15.21809381
ECCENTRICITY   = .00118658
INCLINATION    = 97.4086
RA_OF_ASC_NODE = 101.9491
ARG_OF_PERICENTER = 126.6942
MEAN_ANOMALY   = 233.5386

EPHEMERIS_TYPE = 0
CLASSIFICATION_TYPE = U
NORAD_CAT_ID   = 67295
ELEMENT_SET_NO = 999
REV_AT_EPOCH   = 416
BSTAR          = .5652813E-3
MEAN_MOTION_DOT = .12801E-3
MEAN_MOTION_DDOT = 0

CCSDS_OMM_VERS = 2.0
CREATION_DATE  = 
ORIGINATOR     = 

OBJECT_NAME    = SITRO-AIS-62
OBJECT_ID      = 2025-313BA
CENTER_NAME    = EARTH
REF_FRAME      = TEME
TIME_SYSTEM    = UTC
MEAN_ELEMENT_THEORY = SGP/SGP4

EPOCH          = 2026-01-24T21:40:33.774816
MEAN_MOTION    = 15.21949389
ECCENTRICITY   = .00101551
INCLINATION    = 97.4097
RA_OF_ASC_NODE = 101.9572
ARG_OF_PERICENTER = 136.0437
MEAN_ANOMALY   = 224.1608

EPHEMERIS_TYPE = 0
CLASSIFICATION_TYPE = U
NORAD_CAT_ID   = 67296
ELEMENT_SET_NO = 999
REV_AT_EPOCH   = 416
BSTAR          = .78300425E-3
MEAN_MOTION_DOT = .17834E-3
MEAN_MOTION_DDOT = 0

CCSDS_OMM_VERS = 2.0
CREATION_DATE  = 
ORIGINATOR     = 

OBJECT_NAME    = SITRO-AIS-61
OBJECT_ID      = 2025-313BB
CENTER_NAME    = EARTH
REF_FRAME      = TEME
TIME_SYSTEM    = UTC
MEAN_ELEMENT_THEORY = SGP/SGP4

EPOCH          = 2026-01-24T21:39:02.977920
MEAN_MOTION    = 15.22008481
ECCENTRICITY   = .000983
INCLINATION    = 97.4099
RA_OF_ASC_NODE = 101.9586
ARG_OF_PERICENTER = 137.8637
MEAN_ANOMALY   = 222.3357

EPHEMERIS_TYPE = 0
CLASSIFICATION_TYPE = U
NORAD_CAT_ID   = 67297
ELEMENT_SET_NO = 999
REV_AT_EPOCH   = 416
BSTAR          = .78817232E-3
MEAN_MOTION_DOT = .17982E-3
MEAN_MOTION_DDOT = 0

CCSDS_OMM_VERS = 2.0
CREATION_DATE  = 
ORIGINATOR     = 

OBJECT_NAME    = TIANHUI 7
OBJECT_ID      = 2025-314A
CENTER_NAME    = EARTH
REF_FRAME      = TEME
TIME_SYSTEM    = UTC
MEAN_ELEMENT_THEORY = SGP/SGP4

EPOCH          = 2026-01-20T22:20:42.562752
MEAN_MOTION    = 15.25587940
ECCENTRICITY   = .00015619
INCLINATION    = 97.4187
RA_OF_ASC_NODE = 97.9671
ARG_OF_PERICENTER = 100.1824
MEAN_ANOMALY   = 259.9591

EPHEMERIS_TYPE = 0
CLASSIFICATION_TYPE = U
NORAD_CAT_ID   = 67300
ELEMENT_SET_NO = 999
REV_AT_EPOCH   = 333
BSTAR          = .19816833E-3
MEAN_MOTION_DOT = .496E-4
MEAN_MOTION_DDOT = 0

CCSDS_OMM_VERS = 2.0
CREATION_DATE  = 
ORIGINATOR     = 

OBJECT_NAME    = CZ-4B R/B
OBJECT_ID      = 2025-314B
CENTER_NAME    = EARTH
REF_FRAME      = TEME
TIME_SYSTEM    = UTC
MEAN_ELEMENT_THEORY = SGP/SGP4

EPOCH          = 2026-01-24T16:03:09.674208
MEAN_MOTION    = 15.71966863
ECCENTRICITY   = .01321866
INCLINATION    = 97.3702
RA_OF_ASC_NODE = 103.2101
ARG_OF_PERICENTER = 282.3506
MEAN_ANOMALY   = 76.2988

EPHEMERIS_TYPE = 0
CLASSIFICATION_TYPE = U
NORAD_CAT_ID   = 67301
ELEMENT_SET_NO = 999
REV_AT_EPOCH   = 396
BSTAR          = .61708449E-3
MEAN_MOTION_DOT = .136901E-2
MEAN_MOTION_DDOT = .7753958E-5

CCSDS_OMM_VERS = 2.0
CREATION_DATE  = 
ORIGINATOR     = 

OBJECT_NAME    = SHIJIAN-29A (SJ-29A)
OBJECT_ID      = 2025-315A
CENTER_NAME    = EARTH
REF_FRAME      = TEME
TIME_SYSTEM    = UTC
MEAN_ELEMENT_THEORY = SGP/SGP4

EPOCH          = 2026-01-24T20:57:47.674080
MEAN_MOTION    = 1.00270872
ECCENTRICITY   = .00014043
INCLINATION    = 3.0336
RA_OF_ASC_NODE = 98.9108
ARG_OF_PERICENTER = 296.8156
MEAN_ANOMALY   = 115.9237

EPHEMERIS_TYPE = 0
CLASSIFICATION_TYPE = U
NORAD_CAT_ID   = 67302
ELEMENT_SET_NO = 999
REV_AT_EPOCH   = 18
BSTAR          = 0
MEAN_MOTION_DOT = -.52E-6
MEAN_MOTION_DDOT = 0

CCSDS_OMM_VERS = 2.0
CREATION_DATE  = 
ORIGINATOR     = 

OBJECT_NAME    = CZ-7A R/B
OBJECT_ID      = 2025-315B
CENTER_NAME    = EARTH
REF_FRAME      = TEME
TIME_SYSTEM    = UTC
MEAN_ELEMENT_THEORY = SGP/SGP4

EPOCH          = 2026-01-24T09:56:46.057344
MEAN_MOTION    = 2.45414512
ECCENTRICITY   = .71786124
INCLINATION    = 19.5975
RA_OF_ASC_NODE = 90.1991
ARG_OF_PERICENTER = 197.9165
MEAN_ANOMALY   = 109.7640

EPHEMERIS_TYPE = 0
CLASSIFICATION_TYPE = U
NORAD_CAT_ID   = 67303
ELEMENT_SET_NO = 999
REV_AT_EPOCH   = 60
BSTAR          = .21330039E-2
MEAN_MOTION_DOT = .69603E-3
MEAN_MOTION_DDOT = -.517892E-6

CCSDS_OMM_VERS = 2.0
CREATION_DATE  = 
ORIGINATOR     = 

OBJECT_NAME    = CSG-3
OBJECT_ID      = 2026-001A
CENTER_NAME    = EARTH
REF_FRAME      = TEME
TIME_SYSTEM    = UTC
MEAN_ELEMENT_THEORY = SGP/SGP4

EPOCH          = 2026-01-24T22:38:14.553600
MEAN_MOTION    = 14.82520940
ECCENTRICITY   = .00015952
INCLINATION    = 97.8452
RA_OF_ASC_NODE = 210.6455
ARG_OF_PERICENTER = 84.9606
MEAN_ANOMALY   = 275.1789

EPHEMERIS_TYPE = 0
CLASSIFICATION_TYPE = U
NORAD_CAT_ID   = 67304
ELEMENT_SET_NO = 999
REV_AT_EPOCH   = 324
BSTAR          = .10121008E-3
MEAN_MOTION_DOT = .761E-5
MEAN_MOTION_DDOT = 0

CCSDS_OMM_VERS = 2.0
CREATION_DATE  = 
ORIGINATOR     = 

OBJECT_NAME    = STARLINK-36490
OBJECT_ID      = 2026-002A
CENTER_NAME    = EARTH
REF_FRAME      = TEME
TIME_SYSTEM    = UTC
MEAN_ELEMENT_THEORY = SGP/SGP4

EPOCH          = 2026-01-24T22:00:01.999584
MEAN_MOTION    = 15.69518583
ECCENTRICITY   = .00014473
INCLINATION    = 42.9993
RA_OF_ASC_NODE = 215.4355
ARG_OF_PERICENTER = 271.2081
MEAN_ANOMALY   = 332.7199

EPHEMERIS_TYPE = 0
CLASSIFICATION_TYPE = U
NORAD_CAT_ID   = 67305
ELEMENT_SET_NO = 999
REV_AT_EPOCH   = 444
BSTAR          = -.18458312E-1
MEAN_MOTION_DOT = -.1978428E-1
MEAN_MOTION_DDOT = 0

CCSDS_OMM_VERS = 2.0
CREATION_DATE  = 
ORIGINATOR     = 

OBJECT_NAME    = STARLINK-36488
OBJECT_ID      = 2026-002B
CENTER_NAME    = EARTH
REF_FRAME      = TEME
TIME_SYSTEM    = UTC
MEAN_ELEMENT_THEORY = SGP/SGP4

EPOCH          = 2026-01-24T22:00:01.999584
MEAN_MOTION    = 15.69514717
ECCENTRICITY   = .00015076
INCLINATION    = 42.9993
RA_OF_ASC_NODE = 215.4311
ARG_OF_PERICENTER = 270.9318
MEAN_ANOMALY   = 334.9151

EPHEMERIS_TYPE = 0
CLASSIFICATION_TYPE = U
NORAD_CAT_ID   = 67306
ELEMENT_SET_NO = 999
REV_AT_EPOCH   = 438
BSTAR          = -.18416999E-1
MEAN_MOTION_DOT = -.1974288E-1
MEAN_MOTION_DDOT = 0

CCSDS_OMM_VERS = 2.0
CREATION_DATE  = 
ORIGINATOR     = 

OBJECT_NAME    = STARLINK-36481
OBJECT_ID      = 2026-002C
CENTER_NAME    = EARTH
REF_FRAME      = TEME
TIME_SYSTEM    = UTC
MEAN_ELEMENT_THEORY = SGP/SGP4

EPOCH          = 2026-01-24T19:22:57.569664
MEAN_MOTION    = 15.74404306
ECCENTRICITY   = .00204846
INCLINATION    = 42.9995
RA_OF_ASC_NODE = 216.0575
ARG_OF_PERICENTER = 292.7850
MEAN_ANOMALY   = 67.0854

EPHEMERIS_TYPE = 0
CLASSIFICATION_TYPE = U
NORAD_CAT_ID   = 67307
ELEMENT_SET_NO = 999
REV_AT_EPOCH   = 433
BSTAR          = .30434501E-2
MEAN_MOTION_DOT = .48657E-2
MEAN_MOTION_DDOT = 0

